STARLINK-30796          
1 58189U 23167Q   26068.19933713 -.00001280  00000+0 -37025-4 0  9991
2 58189  43.0052 145.8654 0001581 239.7068 120.3627 15.27559241130916
PHISAT 2                
1 60470U 24149C   26068.78834181  .00008925  00000+0  31421-3 0  9996
2 60470  97.3806 148.6498 0001175 168.6230 191.5037 15.29548631 86792
